{
    "links": {
        "self": "http://www.neowsapp.com/rest/v1/neo/54054746?api_key=iIulBulltgU6a56xZRHN4H3l9WmuAYTsLGpBGhQ2"
    },
    "id": "54054746",
    "neo_reference_id": "54054746",
    "name": "(2020 TE)",
    "designation": "2020 TE",
    "nasa_jpl_url": "http://ssd.jpl.nasa.gov/sbdb.cgi?sstr=54054746",
    "absolute_magnitude_h": 24.738,
    "estimated_diameter": {
        "kilometers": {
            "estimated_diameter_min": 0.0299885161,
            "estimated_diameter_max": 0.0670563606
        },
        "meters": {
            "estimated_diameter_min": 29.9885161134,
            "estimated_diameter_max": 67.056360574
        },
        "miles": {
            "estimated_diameter_min": 0.0186339942,
            "estimated_diameter_max": 0.0416668778
        },
        "feet": {
            "estimated_diameter_min": 98.3875232056,
            "estimated_diameter_max": 220.0011900255
        }
    },
    "is_potentially_hazardous_asteroid": false,
    "close_approach_data": [
        {
            "close_approach_date": "1908-10-29",
            "close_approach_date_full": "1908-Oct-29 00:30",
            "epoch_date_close_approach": -1930519800000,
            "relative_velocity": {
                "kilometers_per_second": "17.4977274185",
                "kilometers_per_hour": "62991.8187064916",
                "miles_per_hour": "39140.6664623753"
            },
            "miss_distance": {
                "astronomical": "0.4597235101",
                "lunar": "178.8324454289",
                "kilometers": "68773657.899883487",
                "miles": "42733969.4184946406"
            },
            "orbiting_body": "Earth"
        },
        {
            "close_approach_date": "2020-10-02",
            "close_approach_date_full": "2020-Oct-02 04:34",
            "epoch_date_close_approach": 1601613240000,
            "relative_velocity": {
                "kilometers_per_second": "7.2522055479",
                "kilometers_per_hour": "26107.9399725101",
                "miles_per_hour": "16222.4585901411"
            },
            "miss_distance": {
                "astronomical": "0.0491208571",
                "lunar": "19.1080134119",
                "kilometers": "7348375.594734377",
                "miles": "4566068.8631413226"
            },
            "orbiting_body": "Earth"
        },
        {
            "close_approach_date": "2023-05-19",
            "close_approach_date_full": "2023-May-19 08:55",
            "epoch_date_close_approach": 1684486500000,
            "relative_velocity": {
                "kilometers_per_second": "7.0503062037",
                "kilometers_per_hour": "25381.1023334669",
                "miles_per_hour": "15770.8299471478"
            },
            "miss_distance": {
                "astronomical": "0.4609458149",
                "lunar": "179.3079219961",
                "kilometers": "68956512.094454263",
                "miles": "42847589.7463563094"
            },
            "orbiting_body": "Earth"
        },
        {
            "close_approach_date": "2023-10-31",
            "close_approach_date_full": "2023-Oct-31 15:55",
            "epoch_date_close_approach": 1698767700000,
            "relative_velocity": {
                "kilometers_per_second": "17.907883049",
                "kilometers_per_hour": "64468.3789763204",
                "miles_per_hour": "40058.1435922587"
            },
            "miss_distance": {
                "astronomical": "0.476162137",
                "lunar": "185.227071293",
                "kilometers": "71232841.46984819",
                "miles": "44262035.231517422"
            },
            "orbiting_body": "Earth"
        }
    ],
    "orbital_data": {
        "orbit_id": "8",
        "orbit_determination_date": "2020-10-17 08:34:51",
        "first_observation_date": "2020-10-05",
        "last_observation_date": "2020-10-17",
        "data_arc_in_days": 12,
        "observations_used": 47,
        "orbit_uncertainty": "8",
        "minimum_orbit_intersection": ".0240905",
        "jupiter_tisserand_invariant": "4.879",
        "epoch_osculation": "2459129.5",
        "eccentricity": ".2328687315782365",
        "semi_major_axis": "1.329996608142608",
        "inclination": "10.68288405194123",
        "ascending_node_longitude": "6.688038606362492",
        "orbital_period": "560.2401465789195",
        "perihelion_distance": "1.020281985001082",
        "perihelion_argument": "344.9787639195789",
        "aphelion_distance": "1.639711231284134",
        "perihelion_time": "2459110.359094072836",
        "mean_anomaly": "12.29959362222957",
        "mean_motion": ".6425815825558437",
        "equinox": "J2000",
        "orbit_class": {
            "orbit_class_type": "AMO",
            "orbit_class_description": "Near-Earth asteroid orbits similar to that of 1221 Amor",
            "orbit_class_range": "1.017 AU < q (perihelion) < 1.3 AU"
        }
    },
    "is_sentry_object": false
}